CALSPHERE 1             
1 00900U 64063C   16092.20605538  .00000364  00000-0  38532-3 0  9992
2 00900  90.1458   4.8809 0027898   5.0965 355.0477 13.72685588559379
CALSPHERE 2             
1 00902U 64063E   16091.23938350  .00000053  00000-0  67190-4 0  9995
2 00902  90.1520   7.1845 0016218 253.0107 272.6841 13.52630624352463
LCS 1                   
1 01361U 65034C   16090.91052373  .00000006  00000-0 -31306-3 0  9998
2 01361  32.1445  33.9074 0006008 278.9287  81.0530  9.89289228840461
TEMPSAT 1               
1 01512U 65065E   16092.48217397  .00000044  00000-0  70161-4 0  9997
2 01512  89.8043 250.2260 0068063 278.4041 141.2667 13.33390372463137
CALSPHERE 4(A)          
1 01520U 65065H   16090.93037222  .00000054  00000-0  86695-4 0  9991
2 01520  90.0952 118.7650 0069189 180.8351 296.5371 13.35694853464679
OPS 5712 (P/L 160)      
1 02826U 67053A   16092.22801115  .00001016  00000-0  29439-3 0  9995
2 02826  69.9292 193.9849 0008222 280.3492  79.6713 14.47192065524724
OPS 5712 (P/L 153)      
1 02874U 67053H   16092.55663773 -.00000004  00000-0  35788-4 0  9992
2 02874  69.9742 182.1954 0007993 334.3352 122.6735 13.96258515486729
SURCAL 150B             
1 02909U 67053J   16091.56193908  .00001446  00000-0  32052-3 0  9999
2 02909  69.9479 287.6634 0002002   8.7057 351.4116 14.59153179532661
RIGIDSPHERE 2 (LCS 4)   
1 05398U 71067E   16090.90954423  .00000258  00000-0  85374-4 0  9994
2 05398  87.6174 288.4664 0061924 308.3683  51.1959 14.33404818339068
